WNISAT 1R               
1 42835U 17042L   26068.86192839  .00004802  00000+0  37840-3 0  9992
2 42835  97.4515 228.7079 0013301 131.3338 228.9034 15.01153186471607
STARLINK-5749           
1 55569U 23020A   26068.21489580  .00002103  00000+0  17075-3 0  9994
2 55569  43.0028   7.5869 0000657 252.1909 107.8862 15.02529474169917
