[{"OBJECT_NAME":"WNISAT 1R","OBJECT_ID":"2017-042L","EPOCH":"2026-03-09T20:41:10.613760","MEAN_MOTION":15.01153186,"ECCENTRICITY":0.00133015,"INCLINATION":97.4515,"RA_OF_ASC_NODE":228.7079,"ARG_OF_PERICENTER":131.3338,"MEAN_ANOMALY":228.9034,"EPHEMERIS_TYPE":0,"CLASSIFICATION_TYPE":"U","NORAD_CAT_ID":42835,"ELEMENT_SET_NO":999,"REV_AT_EPOCH":47160,"BSTAR":0.00037839839,"MEAN_MOTION_DOT":4.802e-5,"MEAN_MOTION_DDOT":0},{"OBJECT_NAME":"STARLINK-5749","OBJECT_ID":"2023-020A","EPOCH":"2026-03-09T05:09:26.997120","MEAN_MOTION":15.02529474,"ECCENTRICITY":6.57e-5,"INCLINATION":43.0028,"RA_OF_ASC_NODE":7.5869,"ARG_OF_PERICENTER":252.1909,"MEAN_ANOMALY":107.8862,"EPHEMERIS_TYPE":0,"CLASSIFICATION_TYPE":"U","NORAD_CAT_ID":55569,"ELEMENT_SET_NO":999,"REV_AT_EPOCH":16991,"BSTAR":0.00017075481,"MEAN_MOTION_DOT":2.103e-5,"MEAN_MOTION_DDOT":0}]
